GLOBALSTAR M057         
1 25943U 99058A   25036.89051307 -.00000031  00000+0  56423-3 0  9990
2 25943  52.0013   0.8199 0002744 103.6594 256.4561 12.24810202150847
GLOBALSTAR M059         
1 25944U 99058B   25036.91163450 -.00000054  00000+0  40134-3 0  9994
2 25944  51.9991 202.3139 0001385  88.6036  30.6594 11.99973594558280
GLOBALSTAR M056         
1 25945U 99058C   25036.74672380 -.00000071  00000+0  19175-3 0  9993
2 25945  51.9934 208.0923 0000229  55.3755 318.1211 12.04778028146787
GLOBALSTAR M031         
1 25946U 99058D   25036.92183617 -.00000039  00000+0  52699-3 0  9996
2 25946  51.9962 107.8065 0000937 243.3463 288.0104 12.16029605148571
GLOBALSTAR M039         
1 25961U 99062A   25036.96294596 -.00000038  00000+0  36971-3 0  9995
2 25961  51.9862 308.4007 0003399  59.4774 300.6428 12.62317787163645
GLOBALSTAR M034         
1 25962U 99062B   25036.92335740 -.00000059  00000+0  35076-3 0  9997
2 25962  51.9904 352.5975 0014033 151.6695 247.1774 11.79441905122901
GLOBALSTAR M029         
1 25963U 99062C   25036.92397525 -.00000080  00000+0  73619-4 0  9997
2 25963  51.9803  90.4306 0002696 208.0701 323.1862 11.99891139153360
GLOBALSTAR M061         
1 25964U 99062D   25036.62337064 -.00000091  00000+0 -17000-3 0  9991
2 25964  51.9777 175.6656 0006958  82.3650 290.0703 11.76770205105690
